NORAD_CAT_ID,OBJECT_NAME,OBJECT_TYPE,EPOCH,MEAN_MOTION,ECCENTRICITY,INCLINATION,RA_OF_ASC_NODE,ARG_OF_PERICENTER,MEAN_ANOMALY,BSTAR,MEAN_MOTION_DOT,MEAN_MOTION_DDOT,TLE_LINE0,TLE_LINE1,TLE_LINE2,SEMIMAJOR_AXIS,PERIOD,APOGEE,PERIGEE,DECAYED
54785.0,STARLINK-5440,PAYLOAD,2023-09-19 23:18:20,15.08855871,0.000113,53.2178,76.963,88.4742,271.638,5.1753e-05,5.36e-06,0.0,0 STARLINK-5440,1 54785U 22175AD  23262.97107586  .00000536  00000-0  51753-4 0  9993,2 54785  53.2178  76.9630 0001130  88.4742 271.6380 15.08855871 44560,6917.832,95.437,540.479,538.915,0.0
54785.0,STARLINK-5440,PAYLOAD,2023-09-20 18:23:00,15.08827032,0.0001115,53.218,73.3952,95.2549,264.857,-8.5922e-05,-1.654e-05,0.0,0 STARLINK-5440,1 54785U 22175AD  23263.76598345 -.00001654  00000-0 -85922-4 0  9997,2 54785  53.2180  73.3952 0001115  95.2549 264.8570 15.08827032 42522,6917.92,95.438,540.556,539.014,0.0
54785.0,STARLINK-5440,PAYLOAD,2023-09-21 10:16:52,15.08837104,0.0001102,53.2185,70.4215,96.6557,263.456,-7.7914e-05,-1.527e-05,0.0,0 STARLINK-5440,1 54785U 22175AD  23264.42838079 -.00001527  00000-0 -77914-4 0  9993,2 54785  53.2185  70.4215 0001102  96.6557 263.4560 15.08837104 42623,6917.889,95.438,540.517,538.992,0.0
54785.0,STARLINK-5440,PAYLOAD,2023-09-21 11:52:15,15.08838175,0.0001083,53.2183,70.1244,98.5743,261.5372,-7.0197e-05,-1.405e-05,0.0,0 STARLINK-5440,1 54785U 22175AD  23264.49461971 -.00001405  00000-0 -70197-4 0  9994,2 54785  53.2183  70.1244 0001083  98.5743 261.5372 15.08838175 44795,6917.886,95.438,540.5,539.002,0.0
54785.0,STARLINK-5440,PAYLOAD,2023-09-21 18:13:47,15.08844617,0.0001076,53.2182,68.9358,100.3659,259.7454,-3.6054e-06,-3.45e-06,0.0,0 STARLINK-5440,1 54785U 22175AD  23264.75957311 -.00000345  00000-0 -36054-5 0  9998,2 54785  53.2182  68.9358 0001076 100.3659 259.7454 15.08844617 42678,6917.866,95.437,540.476,538.987,0.0
54785.0,STARLINK-5440,PAYLOAD,2023-09-22 10:07:38,15.08840774,9.96e-05,53.2186,65.9626,106.4846,253.6255,3.3665e-05,2.48e-06,0.0,0 STARLINK-5440,1 54785U 22175AD  23265.42197324  .00000248  00000-0  33665-4 0  9997,2 54785  53.2186  65.9626 0000996 106.4846 253.6255 15.08840774 44935,6917.878,95.438,540.432,539.054,0.0
54785.0,STARLINK-5440,PAYLOAD,2023-09-22 18:04:34,15.08836108,0.0001122,53.2196,64.4765,105.7498,254.3618,0.00010373,1.363e-05,0.0,0 STARLINK-5440,1 54785U 22175AD  23265.75317753  .00001363  00000-0  10373-3 0  9992,2 54785  53.2196  64.4765 0001122 105.7498 254.3618 15.08836108 42824,6917.892,95.438,540.533,538.981,0.0
54785.0,STARLINK-5440,PAYLOAD,2023-09-22 19:39:57,15.08839771,0.00011,53.2188,64.1788,104.4047,255.7068,0.00012928,1.77e-05,0.0,0 STARLINK-5440,1 54785U 22175AD  23265.81941419  .00001770  00000-0  12928-3 0  9991,2 54785  53.2188  64.1788 0001100 104.4047 255.7068 15.08839771 44992,6917.881,95.438,540.507,538.985,0.0
54785.0,STARLINK-5440,PAYLOAD,2023-09-23 09:58:26,15.08836646,0.0001257,53.2185,61.5013,97.8167,262.2968,2.9391e-05,1.8e-06,0.0,0 STARLINK-5440,1 54785U 22175AD  23266.41558105  .00000180  00000-0  29391-4 0  9991,2 54785  53.2185  61.5013 0001257  97.8167 262.2968 15.08836646 45083,6917.891,95.438,540.625,538.886,0.0
54785.0,STARLINK-5440,PAYLOAD,2023-09-23 19:30:44,15.08848248,9.52e-05,53.2182,59.7173,95.4275,264.6826,4.6956e-05,4.6e-06,0.0,0 STARLINK-5440,1 54785U 22175AD  23266.81301234  .00000460  00000-0  46956-4 0  9991,2 54785  53.2182  59.7173 0000952  95.4275 264.6826 15.08848248 42987,6917.855,95.437,540.379,539.062,0.0
54785.0,STARLINK-5440,PAYLOAD,2023-09-24 09:49:13,15.08834495,8.72e-05,53.2182,57.0402,100.0367,260.0723,2.3203e-05,8.2e-07,0.0,0 STARLINK-5440,1 54785U 22175AD  23267.40917988  .00000082  00000-0  23203-4 0  9996,2 54785  53.2182  57.0402 0000872 100.0367 260.0723 15.08834495 43075,6917.897,95.438,540.365,539.159,0.0
54785.0,STARLINK-5440,PAYLOAD,2023-09-24 17:46:08,15.08848787,0.0001039,53.2185,55.5534,95.783,264.3281,9.3017e-06,-1.4e-06,0.0,0 STARLINK-5440,1 54785U 22175AD  23267.74037208 -.00000140  00000-0  93017-5 0  9998,2 54785  53.2185  55.5534 0001039  95.7830 264.3281 15.08848787 43129,6917.854,95.437,540.437,539.0,0.0
54785.0,STARLINK-5440,PAYLOAD,2023-09-24 19:21:30,15.0885186,9.8e-05,53.2184,55.2551,104.133,255.9771,2.6379e-05,1.32e-06,0.0,0 STARLINK-5440,1 54785U 22175AD  23267.80660862  .00000132  00000-0  26379-4 0  9999,2 54785  53.2184  55.2551 0000980 104.1330 255.9771 15.08851860 45294,6917.844,95.437,540.387,539.031,0.0
54785.0,STARLINK-5440,PAYLOAD,2023-09-25 09:40:00,15.0883653,0.0001007,53.2177,52.5812,96.1522,263.9584,1.9713e-05,2.6e-07,0.0,0 STARLINK-5440,1 54785U 22175AD  23268.40277796  .00000026  00000-0  19713-4 0  9992,2 54785  53.2177  52.5812 0001007  96.1522 263.9584 15.08836530 43229,6917.891,95.438,540.453,539.059,0.0
54785.0,STARLINK-5440,PAYLOAD,2023-09-25 16:01:32,15.0884092,9e-05,53.2177,51.392,98.4305,261.6789,5.112e-05,5.26e-06,0.0,0 STARLINK-5440,1 54785U 22175AD  23268.66773357  .00000526  00000-0  51120-4 0  9997,2 54785  53.2177  51.3920 0000900  98.4305 261.6789 15.08840920 45425,6917.878,95.437,540.365,539.12,0.0
54785.0,STARLINK-5440,PAYLOAD,2023-09-26 14:16:56,15.08839214,0.0001302,53.2197,47.2271,106.4814,253.6321,-8.9278e-05,-1.708e-05,0.0,0 STARLINK-5440,1 54785U 22175AD  23269.59510130 -.00001708  00000-0 -89278-4 0  9998,2 54785  53.2197  47.2271 0001302 106.4814 253.6321 15.08839214 45564,6917.883,95.438,540.648,538.847,0.0
54785.0,STARLINK-5440,PAYLOAD,2023-09-26 15:52:20,15.088356,0.0001322,53.2193,46.9318,98.2563,261.8579,-5.7802e-05,-1.208e-05,0.0,0 STARLINK-5440,1 54785U 22175AD  23269.66134302 -.00001208  00000-0 -57802-4 0  9992,2 54785  53.2193  46.9318 0001322  98.2563 261.8579 15.08835600 43412,6917.894,95.438,540.673,538.844,0.0
54785.0,STARLINK-5440,PAYLOAD,2023-09-26 19:03:05,15.0884133,0.0001136,53.2191,46.3339,102.231,257.881,-6.0292e-05,-1.247e-05,0.0,0 STARLINK-5440,1 54785U 22175AD  23269.79381918 -.00001247  00000-0 -60292-4 0  9993,2 54785  53.2191  46.3339 0001136 102.2310 257.8810 15.08841330 45597,6917.876,95.437,540.527,538.955,0.0
54785.0,STARLINK-5440,PAYLOAD,2023-09-27 12:32:20,15.08835212,0.0001102,53.2186,43.063,92.8078,267.304,4.7419e-05,4.67e-06,0.0,0 STARLINK-5440,1 54785U 22175AD  23270.52246165  .00000467  00000-0  47419-4 0  9997,2 54785  53.2186  43.0630 0001102  92.8078 267.3040 15.08835212 45703,6917.895,95.438,540.522,538.998,0.0
54785.0,STARLINK-5440,PAYLOAD,2023-09-27 15:43:06,15.08844001,0.0001213,53.2195,42.472,85.2712,274.8419,1.0766e-05,-1.16e-06,0.0,0 STARLINK-5440,1 54785U 22175AD  23270.65493837 -.00000116  00000-0  10766-4 0  9998,2 54785  53.2195  42.4720 0001213  85.2712 274.8419 15.08844001 43561,6917.868,95.437,540.572,538.894,0.0
54785.0,STARLINK-5440,PAYLOAD,2023-09-28 12:23:07,15.08836691,0.0001238,53.22,38.6087,77.1402,282.9729,6.1618e-05,6.93e-06,0.0,0 STARLINK-5440,1 54785U 22175AD  23271.51606359  .00000693  00000-0  61618-4 0  9990,2 54785  53.2200  38.6087 0001238  77.1402 282.9729 15.08836691 43698,6917.891,95.438,540.612,538.899,0.0
54785.0,STARLINK-5440,PAYLOAD,2023-09-28 13:58:30,15.08839078,0.0001225,53.2198,38.3117,83.2493,276.8639,4.841e-05,4.83e-06,0.0,0 STARLINK-5440,1 54785U 22175AD  23271.58230264  .00000483  00000-0  48410-4 0  9997,2 54785  53.2198  38.3117 0001225  83.2493 276.8639 15.08839078 45864,6917.883,95.438,540.596,538.901,0.0
54785.0,STARLINK-5440,PAYLOAD,2023-09-28 15:33:53,15.08843521,0.0001153,53.2193,38.0108,76.3184,283.7936,4.321e-05,4e-06,0.0,0 STARLINK-5440,1 54785U 22175AD  23271.64853996  .00000400  00000-0  43210-4 0  9999,2 54785  53.2193  38.0108 0001153  76.3184 283.7936 15.08843521 45872,6917.87,95.437,540.532,538.937,0.0
54785.0,STARLINK-5440,PAYLOAD,2023-09-29 13:49:18,15.08839393,0.0001184,53.2188,33.8487,69.6323,290.4796,2.1995e-06,-2.53e-06,0.0,0 STARLINK-5440,1 54785U 22175AD  23272.57590657 -.00000253  00000-0  21995-5 0  9998,2 54785  53.2188  33.8487 0001184  69.6323 290.4796 15.08839393 46011,6917.882,95.438,540.566,538.928,0.0
54785.0,STARLINK-5440,PAYLOAD,2023-09-30 00:57:00,15.08838063,0.0001159,53.2186,31.7674,71.0025,289.1092,2.0629e-05,4e-07,0.0,0 STARLINK-5440,1 54785U 22175AD  23273.03958676  .00000040  00000-0  20629-4 0  9994,2 54785  53.2186  31.7674 0001159  71.0025 289.1092 15.08838063 46086,6917.886,95.438,540.553,538.95,0.0
54785.0,STARLINK-5440,PAYLOAD,2023-09-30 16:50:50,15.08854338,0.0001282,53.2192,28.7886,87.1809,272.933,7.8803e-05,9.67e-06,0.0,0 STARLINK-5440,1 54785U 22175AD  23273.70197195  .00000967  00000-0  78803-4 0  9994,2 54785  53.2192  28.7886 0001282  87.1809 272.9330 15.08854338 44029,6917.837,95.437,540.588,538.815,0.0
54785.0,STARLINK-5440,PAYLOAD,2023-10-01 00:47:46,15.08842269,0.0001499,53.2194,27.3005,82.501,277.6152,-4.0731e-05,-9.36e-06,0.0,0 STARLINK-5440,1 54785U 22175AD  23274.03318287 -.00000936  00000-0 -40731-4 0  9995,2 54785  53.2194  27.3005 0001499  82.5010 277.6152 15.08842269 44071,6917.873,95.437,540.775,538.701,0.0
54785.0,STARLINK-5440,PAYLOAD,2023-10-01 13:30:52,15.0884284,0.0001518,53.2191,24.9255,88.5017,271.6149,1.788e-06,-2.6e-06,0.0,0 STARLINK-5440,1 54785U 22175AD  23274.56310293 -.00000260  00000-0  17880-5 0  9991,2 54785  53.2191  24.9255 0001518  88.5017 271.6149 15.08842840 46317,6917.872,95.437,540.787,538.687,0.0
54785.0,STARLINK-5440,PAYLOAD,2023-10-01 16:41:37,15.08854548,0.0001195,53.2189,24.3316,95.8186,264.2942,0.00010025,1.309e-05,0.0,0 STARLINK-5440,1 54785U 22175AD  23274.69557055  .00001309  00000-0  10025-3 0  9990,2 54785  53.2189  24.3316 0001195  95.8186 264.2942 15.08854548 44174,6917.836,95.437,540.528,538.874,0.0
54785.0,STARLINK-5440,PAYLOAD,2023-10-02 00:38:35,15.08828712,0.0001837,53.2207,22.8432,81.0157,279.1043,-6.7388e-05,-1.36e-05,0.0,0 STARLINK-5440,1 54785U 22175AD  23275.02679502 -.00001360  00000-0 -67388-4 0  9994,2 54785  53.2207  22.8432 0001837  81.0157 279.1043 15.08828712 44222,6917.915,95.438,541.051,538.509,0.0
